{"type": "FeatureCollection", "features": [ {"type": "Feature", "properties": {"norad_id": 36716, "name": "FENGYUN 1C DEB", "group": "fengyun-1c-debris", "lat": -48.125160332422595, "lon": -70.28287970276963, "alt_km": 992.4400816298048, "timestamp": "2025-12-26T08:37:54.868857+00:00", "meta": {"OBJECT_NAME": "FENGYUN 1C DEB", "OBJECT_ID": "1999-025EAN", "EPOCH": "2025-12-24T13:38:03.454656", "MEAN_MOTION": 13.8842033, "ECCENTRICITY": 0.01483644, "INCLINATION": 99.2293, "RA_OF_ASC_NODE": 277.4949, "ARG_OF_PERICENTER": 196.842, "MEAN_ANOMALY": 162.7782, "EPHEMERIS_TYPE": 0, "CLASSIFICATION_TYPE": "U", "NORAD_CAT_ID": 36716, "ELEMENT_SET_NO": 999, "REV_AT_EPOCH": 63095, "BSTAR": 0.00021899669, "MEAN_MOTION_DOT": 2.42e-06, "MEAN_MOTION_DDOT": 0}, "tle": {"line1": "1 36716U 99025EAN 25358.56809554  .00000242  00000+0  21900-3 0  9995", "line2": "2 36716  99.2293 277.4949 0148364 196.8420 162.7782 13.88420330630955"}}, "geometry": {"type": "Point", "coordinates": [-70.28287970276963, -48.125160332422595]}}, {"type": "Feature", "properties": {"norad_id": 36724, "name": "FENGYUN 1C DEB", "group": "fengyun-1c-debris", "lat": -6.135187787581914, "lon": -147.85958310997216, "alt_km": 744.1144164741445, "timestamp": "2025-12-26T08:37:54.868867+00:00", "meta": {"OBJECT_NAME": "FENGYUN 1C DEB", "OBJECT_ID": "1999-025EAW", "EPOCH": "2025-12-22T01:08:19.052736", "MEAN_MOTION": 14.25358317, "ECCENTRICITY": 0.01037225, "INCLINATION": 99.4676, "RA_OF_ASC_NODE": 28.5169, "ARG_OF_PERICENTER": 171.606, "MEAN_ANOMALY": 218.6674, "EPHEMERIS_TYPE": 0, "CLASSIFICATION_TYPE": "U", "NORAD_CAT_ID": 36724, "ELEMENT_SET_NO": 999, "REV_AT_EPOCH": 57605, "BSTAR": 0.0017254927, "MEAN_MOTION_DOT": 4.254e-05, "MEAN_MOTION_DDOT": 0}, "tle": {"line1": "1 36724U 99025EAW 25356.04744274  .00004254  00000+0  17255-2 0  9996", "line2": "2 36724  99.4676  28.5169 0103722 171.6060 218.6674 14.25358317576058"}}, "geometry": {"type": "Point", "coordinates": [-147.85958310997216, -6.135187787581914]}}, {"type": "Feature", "properties": {"norad_id": 36729, "name": "FENGYUN 1C DEB", "group": "fengyun-1c-debris", "lat": -43.18241703050015, "lon": 153.4630637456061, "alt_km": 832.0995417415188, "timestamp": "2025-12-26T08:37:54.868877+00:00", "meta": {"OBJECT_NAME": "FENGYUN 1C DEB", "OBJECT_ID": "1999-025EBB", "EPOCH": "2025-12-26T04:10:03.962208", "MEAN_MOTION": 14.1032958, "ECCENTRICITY": 0.0045575, "INCLINATION": 98.7094, "RA_OF_ASC_NODE": 341.554, "ARG_OF_PERICENTER": 217.2667, "MEAN_ANOMALY": 142.5339, "EPHEMERIS_TYPE": 0, "CLASSIFICATION_TYPE": "U", "NORAD_CAT_ID": 36729, "ELEMENT_SET_NO": 999, "REV_AT_EPOCH": 87441, "BSTAR": 0.00029077, "MEAN_MOTION_DOT": 4.78e-06, "MEAN_MOTION_DDOT": 0}, "tle": {"line1": "1 36729U 99025EBB 25360.17365697  .00000478  00000+0  29077-3 0  9998", "line2": "2 36729  98.7094 341.5540 0045575 217.2667 142.5339 14.10329580874419"}}, "geometry": {"type": "Point", "coordinates": [153.4630637456061, -43.18241703050015]}}, {"type": "Feature", "properties": {"norad_id": 36734, "name": "FENGYUN 1C DEB", "group": "fengyun-1c-debris", "lat": 26.649731222659415, "lon": 43.113649611481854, "alt_km": 827.9301393155902, "timestamp": "2025-12-26T08:37:54.868887+00:00", "meta": {"OBJECT_NAME": "FENGYUN 1C DEB", "OBJECT_ID": "1999-025EBG", "EPOCH": "2025-12-26T01:46:06.957696", "MEAN_MOTION": 14.25955945, "ECCENTRICITY": 0.0036684, "INCLINATION": 99.055, "RA_OF_ASC_NODE": 47.4086, "ARG_OF_PERICENTER": 182.1652, "MEAN_ANOMALY": 177.9373, "EPHEMERIS_TYPE": 0, "CLASSIFICATION_TYPE": "U", "NORAD_CAT_ID": 36734, "ELEMENT_SET_NO": 999, "REV_AT_EPOCH": 82924, "BSTAR": 0.0016001, "MEAN_MOTION_DOT": 3.797e-05, "MEAN_MOTION_DDOT": 0}, "tle": {"line1": "1 36734U 99025EBG 25360.07369164  .00003797  00000+0  16001-2 0  9995", "line2": "2 36734  99.0550  47.4086 0036684 182.1652 177.9373 14.25955945829245"}}, "geometry": {"type": "Point", "coordinates": [43.113649611481854, 26.649731222659415]}}, {"type": "Feature", "properties": {"norad_id": 36736, "name": "FENGYUN 1C DEB", "group": "fengyun-1c-debris", "lat": 71.14529204836637, "lon": -79.12664326484798, "alt_km": 756.30188749631, "timestamp": "2025-12-26T08:37:54.868897+00:00", "meta": {"OBJECT_NAME": "FENGYUN 1C DEB", "OBJECT_ID": "1999-025EBJ", "EPOCH": "2025-12-19T22:50:38.532768", "MEAN_MOTION": 14.25518256, "ECCENTRICITY": 0.00607429, "INCLINATION": 98.8062, "RA_OF_ASC_NODE": 67.4431, "ARG_OF_PERICENTER": 119.7313, "MEAN_ANOMALY": 240.9929, "EPHEMERIS_TYPE": 0, "CLASSIFICATION_TYPE": "U", "NORAD_CAT_ID": 36736, "ELEMENT_SET_NO": 999, "REV_AT_EPOCH": 88718, "BSTAR": 0.0010514399, "MEAN_MOTION_DOT": 2.49e-05, "MEAN_MOTION_DDOT": 0}, "tle": {"line1": "1 36736U 99025EBJ 25353.95183487  .00002490  00000+0  10514-2 0  9990", "line2": "2 36736  98.8062  67.4431 0060742 119.7313 240.9929 14.25518256887185"}}, "geometry": {"type": "Point", "coordinates": [-79.12664326484798, 71.14529204836637]}}, {"type": "Feature", "properties": {"norad_id": 36743, "name": "FENGYUN 1C DEB", "group": "fengyun-1c-debris", "lat": -45.61333056462252, "lon": 57.4815954257715, "alt_km": 769.2334694388455, "timestamp": "2025-12-26T08:37:54.868907+00:00", "meta": {"OBJECT_NAME": "FENGYUN 1C DEB", "OBJECT_ID": "1999-025EBR", "EPOCH": "2025-12-15T20:48:16.336800", "MEAN_MOTION": 14.29116099, "ECCENTRICITY": 0.0047177, "INCLINATION": 98.6557, "RA_OF_ASC_NODE": 38.1117, "ARG_OF_PERICENTER": 3.5743, "MEAN_ANOMALY": 356.5766, "EPHEMERIS_TYPE": 0, "CLASSIFICATION_TYPE": "U", "NORAD_CAT_ID": 36743, "ELEMENT_SET_NO": 999, "REV_AT_EPOCH": 60782, "BSTAR": 0.00095050245, "MEAN_MOTION_DOT": 2.395e-05, "MEAN_MOTION_DDOT": 0}, "tle": {"line1": "1 36743U 99025EBR 25349.86685575  .00002395  00000+0  95050-3 0  9991", "line2": "2 36743  98.6557  38.1117 0047177   3.5743 356.5766 14.29116099607827"}}, "geometry": {"type": "Point", "coordinates": [57.4815954257715, -45.61333056462252]}}, {"type": "Feature", "properties": {"norad_id": 36986, "name": "FENGYUN 1C DEB", "group": "fengyun-1c-debris", "lat": -73.65704374301149, "lon": 100.01003274850022, "alt_km": 839.0088324969602, "timestamp": "2025-12-26T08:37:54.868916+00:00", "meta": {"OBJECT_NAME": "FENGYUN 1C DEB", "OBJECT_ID": "1999-025EBS", "EPOCH": "2025-12-20T22:17:23.796096", "MEAN_MOTION": 14.14646349, "ECCENTRICITY": 0.0088071, "INCLINATION": 99.1446, "RA_OF_ASC_NODE": 61.1301, "ARG_OF_PERICENTER": 219.0076, "MEAN_ANOMALY": 140.4722, "EPHEMERIS_TYPE": 0, "CLASSIFICATION_TYPE": "U", "NORAD_CAT_ID": 36986, "ELEMENT_SET_NO": 999, "REV_AT_EPOCH": 81860, "BSTAR": 0.0013942, "MEAN_MOTION_DOT": 2.737e-05, "MEAN_MOTION_DDOT": 0}, "tle": {"line1": "1 36986U 99025EBS 25354.92874764  .00002737  00000+0  13942-2 0  9992", "line2": "2 36986  99.1446  61.1301 0088071 219.0076 140.4722 14.14646349818603"}}, "geometry": {"type": "Point", "coordinates": [100.01003274850022, -73.65704374301149]}}, {"type": "Feature", "properties": {"norad_id": 36987, "name": "FENGYUN 1C DEB", "group": "fengyun-1c-debris", "lat": 64.9099747383489, "lon": -141.89941466593888, "alt_km": 930.9152375957447, "timestamp": "2025-12-26T08:37:54.868926+00:00", "meta": {"OBJECT_NAME": "FENGYUN 1C DEB", "OBJECT_ID": "1999-025EBT", "EPOCH": "2025-12-19T22:53:32.054208", "MEAN_MOTION": 13.45891786, "ECCENTRICITY": 0.0320403, "INCLINATION": 100.8195, "RA_OF_ASC_NODE": 235.2948, "ARG_OF_PERICENTER": 29.8332, "MEAN_ANOMALY": 332.0644, "EPHEMERIS_TYPE": 0, "CLASSIFICATION_TYPE": "U", "NORAD_CAT_ID": 36987, "ELEMENT_SET_NO": 999, "REV_AT_EPOCH": 60974, "BSTAR": 0.0011449, "MEAN_MOTION_DOT": 8.81e-06, "MEAN_MOTION_DDOT": 0}, "tle": {"line1": "1 36987U 99025EBT 25353.95384322  .00000881  00000+0  11449-2 0  9999", "line2": "2 36987 100.8195 235.2948 0320403  29.8332 332.0644 13.45891786609741"}}, "geometry": {"type": "Point", "coordinates": [-141.89941466593888, 64.9099747383489]}}, {"type": "Feature", "properties": {"norad_id": 36990, "name": "FENGYUN 1C DEB", "group": "fengyun-1c-debris", "lat": 76.21227677463315, "lon": -83.67410211572908, "alt_km": 1040.7785300768564, "timestamp": "2025-12-26T08:37:54.868937+00:00", "meta": {"OBJECT_NAME": "FENGYUN 1C DEB", "OBJECT_ID": "1999-025EBW", "EPOCH": "2025-12-05T02:36:38.289600", "MEAN_MOTION": 13.56914719, "ECCENTRICITY": 0.0292772, "INCLINATION": 96.5839, "RA_OF_ASC_NODE": 290.134, "ARG_OF_PERICENTER": 44.0413, "MEAN_ANOMALY": 318.3658, "EPHEMERIS_TYPE": 0, "CLASSIFICATION_TYPE": "U", "NORAD_CAT_ID": 36990, "ELEMENT_SET_NO": 999, "REV_AT_EPOCH": 82784, "BSTAR": 0.0013157618, "MEAN_MOTION_DOT": 1.212e-05, "MEAN_MOTION_DDOT": 0}, "tle": {"line1": "1 36990U 99025EBW 25339.10877650  .00001212  00000+0  13158-2 0  9993", "line2": "2 36990  96.5839 290.1340 0292772  44.0413 318.3658 13.56914719827842"}}, "geometry": {"type": "Point", "coordinates": [-83.67410211572908, 76.21227677463315]}}, {"type": "Feature", "properties": {"norad_id": 36994, "name": "FENGYUN 1C DEB", "group": "fengyun-1c-debris", "lat": 80.5041876585094, "lon": -152.90137884200797, "alt_km": 997.6496313772132, "timestamp": "2025-12-26T08:37:54.868947+00:00", "meta": {"OBJECT_NAME": "FENGYUN 1C DEB", "OBJECT_ID": "1999-025ECA", "EPOCH": "2025-12-24T04:22:34.357440", "MEAN_MOTION": 13.90790861, "ECCENTRICITY": 0.01144801, "INCLINATION": 98.6443, "RA_OF_ASC_NODE": 319.643, "ARG_OF_PERICENTER": 261.4355, "MEAN_ANOMALY": 97.382, "EPHEMERIS_TYPE": 0, "CLASSIFICATION_TYPE": "U", "NORAD_CAT_ID": 36994, "ELEMENT_SET_NO": 999, "REV_AT_EPOCH": 81066, "BSTAR": 0.00017123213, "MEAN_MOTION_DOT": 1.85e-06, "MEAN_MOTION_DDOT": 0}, "tle": {"line1": "1 36994U 99025ECA 25358.18234210  .00000185  00000+0  17123-3 0  9990", "line2": "2 36994  98.6443 319.6430 0114480 261.4355  97.3820 13.90790861810661"}}, "geometry": {"type": "Point", "coordinates": [-152.90137884200797, 80.5041876585094]}}]}